STARLINK-5599           
1 55766U 23028AB  26068.82788866 -.00001630  00000+0 -12890-3 0  9993
2 55766  69.9999 224.1123 0003060 269.3112  90.7696 14.98323956166550
HAWK-8A                 
1 59443U 24066B   26068.40724718  .00002325  00000+0  20899-3 0  9990
2 59443  45.5937  72.3645 0004214 254.4969 105.5447 14.98766556104869
